CCSDS_OMM_VERS = 2.0
CREATION_DATE  = 
ORIGINATOR     = 

OBJECT_NAME    = DUPLEX
OBJECT_ID      = 1998-067XS
CENTER_NAME    = EARTH
REF_FRAME      = TEME
TIME_SYSTEM    = UTC
MEAN_ELEMENT_THEORY = SGP/SGP4

EPOCH          = 2026-01-15T22:19:37.476768
MEAN_MOTION    = 15.52513192
ECCENTRICITY   = .00022406
INCLINATION    = 51.6322
RA_OF_ASC_NODE = 332.6031
ARG_OF_PERICENTER = 18.1251
MEAN_ANOMALY   = 341.9819

EPHEMERIS_TYPE = 0
CLASSIFICATION_TYPE = U
NORAD_CAT_ID   = 66906
ELEMENT_SET_NO = 999
REV_AT_EPOCH   = 692
BSTAR          = .31255068E-3
MEAN_MOTION_DOT = .1909E-3
MEAN_MOTION_DDOT = 0

CCSDS_OMM_VERS = 2.0
CREATION_DATE  = 
ORIGINATOR     = 

OBJECT_NAME    = 1998-067XT
OBJECT_ID      = 1998-067XT
CENTER_NAME    = EARTH
REF_FRAME      = TEME
TIME_SYSTEM    = UTC
MEAN_ELEMENT_THEORY = SGP/SGP4

EPOCH          = 2026-01-15T22:34:37.731072
MEAN_MOTION    = 15.56468176
ECCENTRICITY   = .00036212
INCLINATION    = 51.6306
RA_OF_ASC_NODE = 331.9235
ARG_OF_PERICENTER = 66.2366
MEAN_ANOMALY   = 293.9005

EPHEMERIS_TYPE = 0
CLASSIFICATION_TYPE = U
NORAD_CAT_ID   = 66907
ELEMENT_SET_NO = 999
REV_AT_EPOCH   = 693
BSTAR          = .78691459E-3
MEAN_MOTION_DOT = .567E-3
MEAN_MOTION_DDOT = 0

CCSDS_OMM_VERS = 2.0
CREATION_DATE  = 
ORIGINATOR     = 

OBJECT_NAME    = 1998-067XU
OBJECT_ID      = 1998-067XU
CENTER_NAME    = EARTH
REF_FRAME      = TEME
TIME_SYSTEM    = UTC
MEAN_ELEMENT_THEORY = SGP/SGP4

EPOCH          = 2026-01-15T02:31:21.455616
MEAN_MOTION    = 15.56329803
ECCENTRICITY   = .00035233
INCLINATION    = 51.6308
RA_OF_ASC_NODE = 336.0922
ARG_OF_PERICENTER = 57.2563
MEAN_ANOMALY   = 302.8768

EPHEMERIS_TYPE = 0
CLASSIFICATION_TYPE = U
NORAD_CAT_ID   = 66908
ELEMENT_SET_NO = 999
REV_AT_EPOCH   = 680
BSTAR          = .6586411E-3
MEAN_MOTION_DOT = .47074E-3
MEAN_MOTION_DDOT = 0

CCSDS_OMM_VERS = 2.0
CREATION_DATE  = 
ORIGINATOR     = 

OBJECT_NAME    = SILVERSAT
OBJECT_ID      = 1998-067XV
CENTER_NAME    = EARTH
REF_FRAME      = TEME
TIME_SYSTEM    = UTC
MEAN_ELEMENT_THEORY = SGP/SGP4

EPOCH          = 2026-01-15T06:56:10.765536
MEAN_MOTION    = 15.57086287
ECCENTRICITY   = .00037426
INCLINATION    = 51.6311
RA_OF_ASC_NODE = 335.0704
ARG_OF_PERICENTER = 70.5278
MEAN_ANOMALY   = 289.6118

EPHEMERIS_TYPE = 0
CLASSIFICATION_TYPE = U
NORAD_CAT_ID   = 66909
ELEMENT_SET_NO = 999
REV_AT_EPOCH   = 683
BSTAR          = .89451226E-3
MEAN_MOTION_DOT = .6611E-3
MEAN_MOTION_DDOT = 0

CCSDS_OMM_VERS = 2.0
CREATION_DATE  = 
ORIGINATOR     = 

OBJECT_NAME    = 1998-067XW
OBJECT_ID      = 1998-067XW
CENTER_NAME    = EARTH
REF_FRAME      = TEME
TIME_SYSTEM    = UTC
MEAN_ELEMENT_THEORY = SGP/SGP4

EPOCH          = 2026-01-15T20:50:28.535712
MEAN_MOTION    = 15.56756316
ECCENTRICITY   = .00025888
INCLINATION    = 51.6296
RA_OF_ASC_NODE = 332.1880
ARG_OF_PERICENTER = 45.4937
MEAN_ANOMALY   = 314.6266

EPHEMERIS_TYPE = 0
CLASSIFICATION_TYPE = U
NORAD_CAT_ID   = 66910
ELEMENT_SET_NO = 999
REV_AT_EPOCH   = 692
BSTAR          = .72278817E-3
MEAN_MOTION_DOT = .5257E-3
MEAN_MOTION_DDOT = 0

CCSDS_OMM_VERS = 2.0
CREATION_DATE  = 
ORIGINATOR     = 

OBJECT_NAME    = 1998-067XX
OBJECT_ID      = 1998-067XX
CENTER_NAME    = EARTH
REF_FRAME      = TEME
TIME_SYSTEM    = UTC
MEAN_ELEMENT_THEORY = SGP/SGP4

EPOCH          = 2026-01-15T08:08:29.897952
MEAN_MOTION    = 15.57880704
ECCENTRICITY   = .00026261
INCLINATION    = 51.6295
RA_OF_ASC_NODE = 334.6547
ARG_OF_PERICENTER = 65.3553
MEAN_ANOMALY   = 294.7713

EPHEMERIS_TYPE = 0
CLASSIFICATION_TYPE = U
NORAD_CAT_ID   = 66911
ELEMENT_SET_NO = 999
REV_AT_EPOCH   = 683
BSTAR          = .94694698E-3
MEAN_MOTION_DOT = .72185E-3
MEAN_MOTION_DDOT = 0

CCSDS_OMM_VERS = 2.0
CREATION_DATE  = 
ORIGINATOR     = 

OBJECT_NAME    = 1998-067XY
OBJECT_ID      = 1998-067XY
CENTER_NAME    = EARTH
REF_FRAME      = TEME
TIME_SYSTEM    = UTC
MEAN_ELEMENT_THEORY = SGP/SGP4

EPOCH          = 2026-01-15T21:30:30.808224
MEAN_MOTION    = 15.54995573
ECCENTRICITY   = .00034129
INCLINATION    = 51.6309
RA_OF_ASC_NODE = 332.3751
ARG_OF_PERICENTER = 48.0867
MEAN_ANOMALY   = 312.0414

EPHEMERIS_TYPE = 0
CLASSIFICATION_TYPE = U
NORAD_CAT_ID   = 66912
ELEMENT_SET_NO = 999
REV_AT_EPOCH   = 691
BSTAR          = .57975582E-3
MEAN_MOTION_DOT = .39333E-3
MEAN_MOTION_DDOT = 0

