DUPLEX                  
1 66906U 98067XS  26015.93029487  .00019090  00000+0  31255-3 0  9990
2 66906  51.6322 332.6031 0002240  18.1251 341.9819 15.52513192  6928
1998-067XT              
1 66907U 98067XT  26015.94071448  .00056700  00000+0  78691-3 0  9990
2 66907  51.6306 331.9235 0003621  66.2366 293.9005 15.56468176  6933
1998-067XU              
1 66908U 98067XU  26015.10510944  .00047074  00000+0  65864-3 0  9990
2 66908  51.6308 336.0922 0003523  57.2563 302.8768 15.56329803  6800
SILVERSAT               
1 66909U 98067XV  26015.28901349  .00066110  00000+0  89451-3 0  9993
2 66909  51.6311 335.0704 0003742  70.5278 289.6118 15.57086287  6837
1998-067XW              
1 66910U 98067XW  26015.86838583  .00052570  00000+0  72279-3 0  9993
2 66910  51.6296 332.1880 0002588  45.4937 314.6266 15.56756316  6923
1998-067XX              
1 66911U 98067XX  26015.33923493  .00072185  00000+0  94695-3 0  9991
2 66911  51.6295 334.6547 0002626  65.3553 294.7713 15.57880704  6833
1998-067XY              
1 66912U 98067XY  26015.89618991  .00039333  00000+0  57976-3 0  9996
2 66912  51.6309 332.3751 0003412  48.0867 312.0414 15.54995573  6911
